{"type": "FeatureCollection", "features": [ {"type": "Feature", "properties": {"norad_id": 34375, "name": "IRIDIUM 33 DEB", "group": "iridium-33-debris", "lat": -38.389784669983534, "lon": 3.8895578274190172, "alt_km": 856.558379101969, "timestamp": "2025-12-16T19:34:24.653074+00:00", "meta": {"OBJECT_NAME": "IRIDIUM 33 DEB", "OBJECT_ID": "1997-051FT", "EPOCH": "2025-12-15T12:12:35.293248", "MEAN_MOTION": 14.1799732, "ECCENTRICITY": 0.0103466, "INCLINATION": 86.4324, "RA_OF_ASC_NODE": 181.5831, "ARG_OF_PERICENTER": 118.0515, "MEAN_ANOMALY": 272.2786, "EPHEMERIS_TYPE": 0, "CLASSIFICATION_TYPE": "U", "NORAD_CAT_ID": 34375, "ELEMENT_SET_NO": 999, "REV_AT_EPOCH": 86751, "BSTAR": 0.00042546141, "MEAN_MOTION_DOT": 9.38e-06, "MEAN_MOTION_DDOT": 0}, "tle": {"line1": "1 34375U 97051FT  25349.50874182  .00000938  00000+0  42546-3 0  9995", "line2": "2 34375  86.4324 181.5831 0103466 118.0515 272.2786 14.17997320867513"}}, "geometry": {"type": "Point", "coordinates": [3.8895578274190172, -38.389784669983534]}}, {"type": "Feature", "properties": {"norad_id": 34376, "name": "IRIDIUM 33 DEB", "group": "iridium-33-debris", "lat": 16.677107157167608, "lon": -176.4034031474272, "alt_km": 666.2794865106307, "timestamp": "2025-12-16T19:34:24.653084+00:00", "meta": {"OBJECT_NAME": "IRIDIUM 33 DEB", "OBJECT_ID": "1997-051FU", "EPOCH": "2025-12-15T11:38:00.279744", "MEAN_MOTION": 14.62609938, "ECCENTRICITY": 0.00275056, "INCLINATION": 86.2984, "RA_OF_ASC_NODE": 5.306, "ARG_OF_PERICENTER": 157.5383, "MEAN_ANOMALY": 202.704, "EPHEMERIS_TYPE": 0, "CLASSIFICATION_TYPE": "U", "NORAD_CAT_ID": 34376, "ELEMENT_SET_NO": 999, "REV_AT_EPOCH": 88047, "BSTAR": 0.00093642236, "MEAN_MOTION_DOT": 4.805e-05, "MEAN_MOTION_DDOT": 0}, "tle": {"line1": "1 34376U 97051FU  25349.48472546  .00004805  00000+0  93642-3 0  9991", "line2": "2 34376  86.2984   5.3060 0027505 157.5383 202.7040 14.62609938880477"}}, "geometry": {"type": "Point", "coordinates": [-176.4034031474272, 16.677107157167608]}}, {"type": "Feature", "properties": {"norad_id": 34486, "name": "IRIDIUM 33 DEB", "group": "iridium-33-debris", "lat": 32.07951130047639, "lon": -172.12193988307862, "alt_km": 571.022180556999, "timestamp": "2025-12-16T19:34:24.653094+00:00", "meta": {"OBJECT_NAME": "IRIDIUM 33 DEB", "OBJECT_ID": "1997-051GB", "EPOCH": "2025-12-15T19:37:12.696384", "MEAN_MOTION": 14.95945126, "ECCENTRICITY": 0.00139259, "INCLINATION": 86.3932, "RA_OF_ASC_NODE": 10.6046, "ARG_OF_PERICENTER": 104.2242, "MEAN_ANOMALY": 72.0227, "EPHEMERIS_TYPE": 0, "CLASSIFICATION_TYPE": "U", "NORAD_CAT_ID": 34486, "ELEMENT_SET_NO": 999, "REV_AT_EPOCH": 89032, "BSTAR": 0.0012947344, "MEAN_MOTION_DOT": 0.00014566, "MEAN_MOTION_DDOT": 0}, "tle": {"line1": "1 34486U 97051GB  25349.81750806  .00014566  00000+0  12947-2 0  9991", "line2": "2 34486  86.3932  10.6046 0013925 104.2242  72.0227 14.95945126890328"}}, "geometry": {"type": "Point", "coordinates": [-172.12193988307862, 32.07951130047639]}}, {"type": "Feature", "properties": {"norad_id": 34487, "name": "IRIDIUM 33 DEB", "group": "iridium-33-debris", "lat": 68.60247525268774, "lon": -178.76983056475999, "alt_km": 717.8532278467965, "timestamp": "2025-12-16T19:34:24.653105+00:00", "meta": {"OBJECT_NAME": "IRIDIUM 33 DEB", "OBJECT_ID": "1997-051GC", "EPOCH": "2025-12-15T20:19:48.080064", "MEAN_MOTION": 14.43220021, "ECCENTRICITY": 0.00329918, "INCLINATION": 86.3434, "RA_OF_ASC_NODE": 11.0395, "ARG_OF_PERICENTER": 118.6827, "MEAN_ANOMALY": 3.786, "EPHEMERIS_TYPE": 0, "CLASSIFICATION_TYPE": "U", "NORAD_CAT_ID": 34487, "ELEMENT_SET_NO": 999, "REV_AT_EPOCH": 88293, "BSTAR": 0.00017484947, "MEAN_MOTION_DOT": 6.12e-06, "MEAN_MOTION_DDOT": 0}, "tle": {"line1": "1 34487U 97051GC  25349.84708426  .00000612  00000+0  17485-3 0  9996", "line2": "2 34487  86.3434  11.0395 0032991 118.6827   3.7860 14.43220021882935"}}, "geometry": {"type": "Point", "coordinates": [-178.76983056475999, 68.60247525268774]}}, {"type": "Feature", "properties": {"norad_id": 34488, "name": "IRIDIUM 33 DEB", "group": "iridium-33-debris", "lat": -86.31691866785901, "lon": -148.4438990476731, "alt_km": 487.85194165853227, "timestamp": "2025-12-16T19:34:24.653115+00:00", "meta": {"OBJECT_NAME": "IRIDIUM 33 DEB", "OBJECT_ID": "1997-051GD", "EPOCH": "2025-12-15T14:08:51.912672", "MEAN_MOTION": 15.30156177, "ECCENTRICITY": 0.00124549, "INCLINATION": 86.3223, "RA_OF_ASC_NODE": 304.4015, "ARG_OF_PERICENTER": 46.5674, "MEAN_ANOMALY": 313.6609, "EPHEMERIS_TYPE": 0, "CLASSIFICATION_TYPE": "U", "NORAD_CAT_ID": 34488, "ELEMENT_SET_NO": 999, "REV_AT_EPOCH": 89283, "BSTAR": 0.0030438437, "MEAN_MOTION_DOT": 0.00089902, "MEAN_MOTION_DDOT": 0}, "tle": {"line1": "1 34488U 97051GD  25349.58948973  .00089902  00000+0  30438-2 0  9992", "line2": "2 34488  86.3223 304.4015 0012454  46.5674 313.6609 15.30156177892832"}}, "geometry": {"type": "Point", "coordinates": [-148.4438990476731, -86.31691866785901]}}, {"type": "Feature", "properties": {"norad_id": 34492, "name": "IRIDIUM 33 DEB", "group": "iridium-33-debris", "lat": -52.50985209408994, "lon": -31.63330446869712, "alt_km": 792.5321993810103, "timestamp": "2025-12-16T19:34:24.653125+00:00", "meta": {"OBJECT_NAME": "IRIDIUM 33 DEB", "OBJECT_ID": "1997-051GH", "EPOCH": "2025-12-15T10:44:59.012736", "MEAN_MOTION": 14.25789641, "ECCENTRICITY": 0.01889008, "INCLINATION": 86.4708, "RA_OF_ASC_NODE": 333.5341, "ARG_OF_PERICENTER": 229.3611, "MEAN_ANOMALY": 260.3123, "EPHEMERIS_TYPE": 0, "CLASSIFICATION_TYPE": "U", "NORAD_CAT_ID": 34492, "ELEMENT_SET_NO": 999, "REV_AT_EPOCH": 85097, "BSTAR": 0.002450853, "MEAN_MOTION_DOT": 7.043e-05, "MEAN_MOTION_DDOT": 0}, "tle": {"line1": "1 34492U 97051GH  25349.44790524  .00007043  00000+0  24509-2 0  9997", "line2": "2 34492  86.4708 333.5341 0188900 229.3611 260.3123 14.25789641850972"}}, "geometry": {"type": "Point", "coordinates": [-31.63330446869712, -52.50985209408994]}}, {"type": "Feature", "properties": {"norad_id": 34497, "name": "IRIDIUM 33 DEB", "group": "iridium-33-debris", "lat": -27.593981578864007, "lon": -127.38987429608359, "alt_km": 832.8861860004627, "timestamp": "2025-12-16T19:34:24.653136+00:00", "meta": {"OBJECT_NAME": "IRIDIUM 33 DEB", "OBJECT_ID": "1997-051GN", "EPOCH": "2025-12-15T04:02:13.460640", "MEAN_MOTION": 14.27461536, "ECCENTRICITY": 0.00785278, "INCLINATION": 86.2779, "RA_OF_ASC_NODE": 51.3639, "ARG_OF_PERICENTER": 331.6581, "MEAN_ANOMALY": 56.4646, "EPHEMERIS_TYPE": 0, "CLASSIFICATION_TYPE": "U", "NORAD_CAT_ID": 34497, "ELEMENT_SET_NO": 999, "REV_AT_EPOCH": 86918, "BSTAR": 0.00050796249, "MEAN_MOTION_DOT": 1.306e-05, "MEAN_MOTION_DDOT": 0}, "tle": {"line1": "1 34497U 97051GN  25349.16821135  .00001306  00000+0  50796-3 0  9998", "line2": "2 34497  86.2779  51.3639 0078527 331.6581  56.4646 14.27461536869183"}}, "geometry": {"type": "Point", "coordinates": [-127.38987429608359, -27.593981578864007]}}, {"type": "Feature", "properties": {"norad_id": 34508, "name": "IRIDIUM 33 DEB", "group": "iridium-33-debris", "lat": 12.431135467593842, "lon": -79.88629440311146, "alt_km": 717.8891127053612, "timestamp": "2025-12-16T19:34:24.653146+00:00", "meta": {"OBJECT_NAME": "IRIDIUM 33 DEB", "OBJECT_ID": "1997-051GZ", "EPOCH": "2025-12-15T17:45:23.056416", "MEAN_MOTION": 14.38453467, "ECCENTRICITY": 0.00664069, "INCLINATION": 86.3703, "RA_OF_ASC_NODE": 101.3715, "ARG_OF_PERICENTER": 163.2203, "MEAN_ANOMALY": 197.1214, "EPHEMERIS_TYPE": 0, "CLASSIFICATION_TYPE": "U", "NORAD_CAT_ID": 34508, "ELEMENT_SET_NO": 999, "REV_AT_EPOCH": 87352, "BSTAR": 0.00092359251, "MEAN_MOTION_DOT": 2.911e-05, "MEAN_MOTION_DDOT": 0}, "tle": {"line1": "1 34508U 97051GZ  25349.73985019  .00002911  00000+0  92359-3 0  9990", "line2": "2 34508  86.3703 101.3715 0066406 163.2203 197.1214 14.38453467873521"}}, "geometry": {"type": "Point", "coordinates": [-79.88629440311146, 12.431135467593842]}}, {"type": "Feature", "properties": {"norad_id": 34521, "name": "IRIDIUM 33 DEB", "group": "iridium-33-debris", "lat": -9.584044586183674, "lon": 28.14179358443258, "alt_km": 687.7039511461517, "timestamp": "2025-12-16T19:34:24.653159+00:00", "meta": {"OBJECT_NAME": "IRIDIUM 33 DEB", "OBJECT_ID": "1997-051HN", "EPOCH": "2025-12-15T20:38:31.697376", "MEAN_MOTION": 14.63395767, "ECCENTRICITY": 0.00019285, "INCLINATION": 86.3802, "RA_OF_ASC_NODE": 29.1747, "ARG_OF_PERICENTER": 198.1405, "MEAN_ANOMALY": 161.9739, "EPHEMERIS_TYPE": 0, "CLASSIFICATION_TYPE": "U", "NORAD_CAT_ID": 34521, "ELEMENT_SET_NO": 999, "REV_AT_EPOCH": 88518, "BSTAR": 0.00058798888, "MEAN_MOTION_DOT": 3.06e-05, "MEAN_MOTION_DDOT": 0}, "tle": {"line1": "1 34521U 97051HN  25349.86008909  .00003060  00000+0  58799-3 0  9999", "line2": "2 34521  86.3802  29.1747 0001928 198.1405 161.9739 14.63395767885189"}}, "geometry": {"type": "Point", "coordinates": [28.14179358443258, -9.584044586183674]}}, {"type": "Feature", "properties": {"norad_id": 34525, "name": "IRIDIUM 33 DEB", "group": "iridium-33-debris", "lat": -49.528192541618594, "lon": -130.63199544358025, "alt_km": 759.6907664954051, "timestamp": "2025-12-16T19:34:24.653179+00:00", "meta": {"OBJECT_NAME": "IRIDIUM 33 DEB", "OBJECT_ID": "1997-051HS", "EPOCH": "2025-12-15T21:40:31.725408", "MEAN_MOTION": 14.42913103, "ECCENTRICITY": 0.00065945, "INCLINATION": 86.3727, "RA_OF_ASC_NODE": 45.4937, "ARG_OF_PERICENTER": 87.8759, "MEAN_ANOMALY": 85.1311, "EPHEMERIS_TYPE": 0, "CLASSIFICATION_TYPE": "U", "NORAD_CAT_ID": 34525, "ELEMENT_SET_NO": 999, "REV_AT_EPOCH": 88133, "BSTAR": 0.00033416903, "MEAN_MOTION_DOT": 1.136e-05, "MEAN_MOTION_DDOT": 0}, "tle": {"line1": "1 34525U 97051HS  25349.90314497  .00001136  00000+0  33417-3 0  9992", "line2": "2 34525  86.3727  45.4937 0006594  87.8759  85.1311 14.42913103881334"}}, "geometry": {"type": "Point", "coordinates": [-130.63199544358025, -49.528192541618594]}}]}